ONEWEB-0012             
1 44057U 19010A   26154.26973812  .00000098  00000+0  22305-3 0  9998
2 44057  87.9101 231.5487 0002163  84.9694 275.1684 13.16593372349739
ONEWEB-0010             
1 44058U 19010B   26154.21906932  .00000095  00000+0  21401-3 0  9996
2 44058  87.9107 231.5541 0001645 100.3831 259.7485 13.16594274349770
ONEWEB-0008             
1 44059U 19010C   26154.24440965 -.00000035  00000+0 -12410-3 0  9995
2 44059  87.9104 231.5448 0002288 105.2696 254.8688 13.16595019349893
ONEWEB-0007             
1 44060U 19010D   26154.26843687  .00000069  00000+0  14895-3 0  9991
2 44060  87.9001 261.9939 0001686  95.1893 264.9429 13.15547380349544
ONEWEB-0006             
1 44061U 19010E   26153.81604470  .00000173  00000+0  42635-3 0  9996
2 44061  87.9016 262.0459 0001712 105.3685 254.7635 13.15547614349538
ONEWEB-0011             
1 44062U 19010F   26154.24070572 -.00000066  00000+0 -20833-3 0  9994
2 44062  87.9012 261.9720 0001891 106.8506 253.2832 13.15550028349581
ONEWEB-0013             
1 45131U 20008A   26154.18687464  .00000767  00000+0  21887-2 0  9993
2 45131  87.8522  55.6489 0002721  67.4200 292.7214 13.09453721304230
ONEWEB-0017             
1 45132U 20008B   26154.17899818 -.00000489  00000+0 -14380-2 0  9994
2 45132  87.8847  39.0583 0001611  81.7371 278.3939 13.10375537306110
ONEWEB-0020             
1 45133U 20008C   26154.22549109  .00000070  00000+0  16431-3 0  9990
2 45133  87.8846  39.0472 0001808  84.0771 276.0563 13.10369740306516
ONEWEB-0021             
1 45134U 20008D   26154.24041640 -.00000542  00000+0 -15903-2 0  9998
2 45134  87.8840  39.0608 0001820  78.3293 281.8039 13.10371474306824
ONEWEB-0023             
1 45136U 20008F   26154.17484883 -.00000583  00000+0 -17057-2 0  9999
2 45136  87.8850  39.0550 0001943  79.6972 280.4374 13.10374713306249
ONEWEB-0024             
1 45137U 20008G   26154.22396642  .00000149  00000+0  39024-3 0  9996
2 45137  87.8853  39.0367 0001768  80.2447 279.8880 13.10369301306419
ONEWEB-0025             
1 45138U 20008H   26154.22369196  .00000191  00000+0  50958-3 0  9997
2 45138  87.8855  39.0262 0002014  97.5087 262.6269 13.10369983306745
ONEWEB-0026             
1 45139U 20008J   26153.66216629 -.00000481  00000+0 -13927-2 0  9995
2 45139  87.8898  23.9599 0001698  85.6516 274.4806 13.11416887309209
ONEWEB-0028             
1 45140U 20008K   26154.16957038  .00000593  00000+0  16501-2 0  9992
2 45140  87.8895  23.8661 0002240  72.7385 287.3987 13.10851794306784
ONEWEB-0032             
1 45141U 20008L   26154.18078766 -.00007815  00000+0 -22430-1 0  9990
2 45141  87.8851  39.0599 0002509  88.4088 271.7327 13.10410584306466
