[{"OBJECT_NAME":"ONEWEB-0012","OBJECT_ID":"2019-010A","EPOCH":"2026-06-03T06:28:25.373568","MEAN_MOTION":13.16593372,"ECCENTRICITY":0.0002163,"INCLINATION":87.9101,"RA_OF_ASC_NODE":231.5487,"ARG_OF_PERICENTER":84.9694,"MEAN_ANOMALY":275.1684,"EPHEMERIS_TYPE":0,"CLASSIFICATION_TYPE":"U","NORAD_CAT_ID":44057,"ELEMENT_SET_NO":999,"REV_AT_EPOCH":34973,"BSTAR":0.00022305,"MEAN_MOTION_DOT":9.8e-07,"MEAN_MOTION_DDOT":0.0},{"OBJECT_NAME":"ONEWEB-0010","OBJECT_ID":"2019-010B","EPOCH":"2026-06-03T05:15:27.589248","MEAN_MOTION":13.16594274,"ECCENTRICITY":0.0001645,"INCLINATION":87.9107,"RA_OF_ASC_NODE":231.5541,"ARG_OF_PERICENTER":100.3831,"MEAN_ANOMALY":259.7485,"EPHEMERIS_TYPE":0,"CLASSIFICATION_TYPE":"U","NORAD_CAT_ID":44058,"ELEMENT_SET_NO":999,"REV_AT_EPOCH":34977,"BSTAR":0.00021401000000000002,"MEAN_MOTION_DOT":9.5e-07,"MEAN_MOTION_DDOT":0.0},{"OBJECT_NAME":"ONEWEB-0008","OBJECT_ID":"2019-010C","EPOCH":"2026-06-03T05:51:56.993760","MEAN_MOTION":13.16595019,"ECCENTRICITY":0.0002288,"INCLINATION":87.9104,"RA_OF_ASC_NODE":231.5448,"ARG_OF_PERICENTER":105.2696,"MEAN_ANOMALY":254.8688,"EPHEMERIS_TYPE":0,"CLASSIFICATION_TYPE":"U","NORAD_CAT_ID":44059,"ELEMENT_SET_NO":999,"REV_AT_EPOCH":34989,"BSTAR":-0.0001241,"MEAN_MOTION_DOT":-3.5e-07,"MEAN_MOTION_DDOT":0.0},{"OBJECT_NAME":"ONEWEB-0007","OBJECT_ID":"2019-010D","EPOCH":"2026-06-03T06:26:32.945568","MEAN_MOTION":13.1554738,"ECCENTRICITY":0.0001686,"INCLINATION":87.9001,"RA_OF_ASC_NODE":261.9939,"ARG_OF_PERICENTER":95.1893,"MEAN_ANOMALY":264.9429,"EPHEMERIS_TYPE":0,"CLASSIFICATION_TYPE":"U","NORAD_CAT_ID":44060,"ELEMENT_SET_NO":999,"REV_AT_EPOCH":34954,"BSTAR":0.00014895000000000002,"MEAN_MOTION_DOT":6.9e-07,"MEAN_MOTION_DDOT":0.0},{"OBJECT_NAME":"ONEWEB-0006","OBJECT_ID":"2019-010E","EPOCH":"2026-06-02T19:35:06.262080","MEAN_MOTION":13.15547614,"ECCENTRICITY":0.0001712,"INCLINATION":87.9016,"RA_OF_ASC_NODE":262.0459,"ARG_OF_PERICENTER":105.3685,"MEAN_ANOMALY":254.7635,"EPHEMERIS_TYPE":0,"CLASSIFICATION_TYPE":"U","NORAD_CAT_ID":44061,"ELEMENT_SET_NO":999,"REV_AT_EPOCH":34953,"BSTAR":0.00042635000000000004,"MEAN_MOTION_DOT":1.73e-06,"MEAN_MOTION_DDOT":0.0},{"OBJECT_NAME":"ONEWEB-0011","OBJECT_ID":"2019-010F","EPOCH":"2026-06-03T05:46:36.974208","MEAN_MOTION":13.15550028,"ECCENTRICITY":0.0001891,"INCLINATION":87.9012,"RA_OF_ASC_NODE":261.972,"ARG_OF_PERICENTER":106.8506,"MEAN_ANOMALY":253.2832,"EPHEMERIS_TYPE":0,"CLASSIFICATION_TYPE":"U","NORAD_CAT_ID":44062,"ELEMENT_SET_NO":999,"REV_AT_EPOCH":34958,"BSTAR":-0.00020832999999999998,"MEAN_MOTION_DOT":-6.6e-07,"MEAN_MOTION_DDOT":0.0},{"OBJECT_NAME":"ONEWEB-0013","OBJECT_ID":"2020-008A","EPOCH":"2026-06-03T04:29:05.968896","MEAN_MOTION":13.09453721,"ECCENTRICITY":0.0002721,"INCLINATION":87.8522,"RA_OF_ASC_NODE":55.6489,"ARG_OF_PERICENTER":67.42,"MEAN_ANOMALY":292.7214,"EPHEMERIS_TYPE":0,"CLASSIFICATION_TYPE":"U","NORAD_CAT_ID":45131,"ELEMENT_SET_NO":999,"REV_AT_EPOCH":30423,"BSTAR":0.0021887,"MEAN_MOTION_DOT":7.67e-06,"MEAN_MOTION_DDOT":0.0},{"OBJECT_NAME":"ONEWEB-0017","OBJECT_ID":"2020-008B","EPOCH":"2026-06-03T04:17:45.442752","MEAN_MOTION":13.10375537,"ECCENTRICITY":0.0001611,"INCLINATION":87.8847,"RA_OF_ASC_NODE":39.0583,"ARG_OF_PERICENTER":81.7371,"MEAN_ANOMALY":278.3939,"EPHEMERIS_TYPE":0,"CLASSIFICATION_TYPE":"U","NORAD_CAT_ID":45132,"ELEMENT_SET_NO":999,"REV_AT_EPOCH":30611,"BSTAR":-0.001438,"MEAN_MOTION_DOT":-4.89e-06,"MEAN_MOTION_DDOT":0.0},{"OBJECT_NAME":"ONEWEB-0020","OBJECT_ID":"2020-008C","EPOCH":"2026-06-03T05:24:42.430176","MEAN_MOTION":13.1036974,"ECCENTRICITY":0.0001808,"INCLINATION":87.8846,"RA_OF_ASC_NODE":39.0472,"ARG_OF_PERICENTER":84.0771,"MEAN_ANOMALY":276.0563,"EPHEMERIS_TYPE":0,"CLASSIFICATION_TYPE":"U","NORAD_CAT_ID":45133,"ELEMENT_SET_NO":999,"REV_AT_EPOCH":30651,"BSTAR":0.00016431,"MEAN_MOTION_DOT":7e-07,"MEAN_MOTION_DDOT":0.0},{"OBJECT_NAME":"ONEWEB-0021","OBJECT_ID":"2020-008D","EPOCH":"2026-06-03T05:46:11.976960","MEAN_MOTION":13.10371474,"ECCENTRICITY":0.000182,"INCLINATION":87.884,"RA_OF_ASC_NODE":39.0608,"ARG_OF_PERICENTER":78.3293,"MEAN_ANOMALY":281.8039,"EPHEMERIS_TYPE":0,"CLASSIFICATION_TYPE":"U","NORAD_CAT_ID":45134,"ELEMENT_SET_NO":999,"REV_AT_EPOCH":30682,"BSTAR":-0.0015903,"MEAN_MOTION_DOT":-5.42e-06,"MEAN_MOTION_DDOT":0.0},{"OBJECT_NAME":"ONEWEB-0023","OBJECT_ID":"2020-008F","EPOCH":"2026-06-03T04:11:46.938912","MEAN_MOTION":13.10374713,"ECCENTRICITY":0.0001943,"INCLINATION":87.885,"RA_OF_ASC_NODE":39.055,"ARG_OF_PERICENTER":79.6972,"MEAN_ANOMALY":280.4374,"EPHEMERIS_TYPE":0,"CLASSIFICATION_TYPE":"U","NORAD_CAT_ID":45136,"ELEMENT_SET_NO":999,"REV_AT_EPOCH":30624,"BSTAR":-0.0017057,"MEAN_MOTION_DOT":-5.83e-06,"MEAN_MOTION_DDOT":0.0},{"OBJECT_NAME":"ONEWEB-0024","OBJECT_ID":"2020-008G","EPOCH":"2026-06-03T05:22:30.698688","MEAN_MOTION":13.10369301,"ECCENTRICITY":0.0001768,"INCLINATION":87.8853,"RA_OF_ASC_NODE":39.0367,"ARG_OF_PERICENTER":80.2447,"MEAN_ANOMALY":279.888,"EPHEMERIS_TYPE":0,"CLASSIFICATION_TYPE":"U","NORAD_CAT_ID":45137,"ELEMENT_SET_NO":999,"REV_AT_EPOCH":30641,"BSTAR":0.00039024,"MEAN_MOTION_DOT":1.49e-06,"MEAN_MOTION_DDOT":0.0},{"OBJECT_NAME":"ONEWEB-0025","OBJECT_ID":"2020-008H","EPOCH":"2026-06-03T05:22:06.985344","MEAN_MOTION":13.10369983,"ECCENTRICITY":0.0002014,"INCLINATION":87.8855,"RA_OF_ASC_NODE":39.0262,"ARG_OF_PERICENTER":97.5087,"MEAN_ANOMALY":262.6269,"EPHEMERIS_TYPE":0,"CLASSIFICATION_TYPE":"U","NORAD_CAT_ID":45138,"ELEMENT_SET_NO":999,"REV_AT_EPOCH":30674,"BSTAR":0.00050958,"MEAN_MOTION_DOT":1.91e-06,"MEAN_MOTION_DDOT":0.0},{"OBJECT_NAME":"ONEWEB-0026","OBJECT_ID":"2020-008J","EPOCH":"2026-06-02T15:53:31.167456","MEAN_MOTION":13.11416887,"ECCENTRICITY":0.0001698,"INCLINATION":87.8898,"RA_OF_ASC_NODE":23.9599,"ARG_OF_PERICENTER":85.6516,"MEAN_ANOMALY":274.4806,"EPHEMERIS_TYPE":0,"CLASSIFICATION_TYPE":"U","NORAD_CAT_ID":45139,"ELEMENT_SET_NO":999,"REV_AT_EPOCH":30920,"BSTAR":-0.0013927,"MEAN_MOTION_DOT":-4.81e-06,"MEAN_MOTION_DDOT":0.0},{"OBJECT_NAME":"ONEWEB-0028","OBJECT_ID":"2020-008K","EPOCH":"2026-06-03T04:04:10.880832","MEAN_MOTION":13.10851794,"ECCENTRICITY":0.000224,"INCLINATION":87.8895,"RA_OF_ASC_NODE":23.8661,"ARG_OF_PERICENTER":72.7385,"MEAN_ANOMALY":287.3987,"EPHEMERIS_TYPE":0,"CLASSIFICATION_TYPE":"U","NORAD_CAT_ID":45140,"ELEMENT_SET_NO":999,"REV_AT_EPOCH":30678,"BSTAR":0.0016500999999999998,"MEAN_MOTION_DOT":5.93e-06,"MEAN_MOTION_DDOT":0.0},{"OBJECT_NAME":"ONEWEB-0032","OBJECT_ID":"2020-008L","EPOCH":"2026-06-03T04:20:20.053824","MEAN_MOTION":13.10410584,"ECCENTRICITY":0.0002509,"INCLINATION":87.8851,"RA_OF_ASC_NODE":39.0599,"ARG_OF_PERICENTER":88.4088,"MEAN_ANOMALY":271.7327,"EPHEMERIS_TYPE":0,"CLASSIFICATION_TYPE":"U","NORAD_CAT_ID":45141,"ELEMENT_SET_NO":999,"REV_AT_EPOCH":30646,"BSTAR":-0.022430000000000002,"MEAN_MOTION_DOT":-7.815e-05,"MEAN_MOTION_DDOT":0.0}]